<?xml version="1.0" encoding="UTF-8"?>
<gpx creator="Garmin Connect" version="1.1"
  xsi:schemaLocation="http://www.topografix.com/GPX/1/1 http://www.topografix.com/GPX/11.xsd"
  xmlns:ns3="http://www.garmin.com/xmlschemas/TrackPointExtension/v1"
  xmlns="http://www.topografix.com/GPX/1/1"
  xmlns:xsi="http://www.w3.org/2001/XMLSchema-instance" xmlns:ns2="http://www.garmin.com/xmlschemas/GpxExtensions/v3">
  <metadata>
    <name>Backyard Ultra Santo Domingo 2026</name>
    <link href="connect.garmin.com">
      <text>Garmin Connect</text>
    </link>
    <time>2025-11-07T22:07:42.000Z</time>
  </metadata>
  <trk>
    <name>Backyard Ultra Santo Domingo 2026</name>
    <trkseg>
      <trkpt lat="18.63723998889327" lon="-69.94432993233204">
        <ele>67.79</ele>
      </trkpt>
      <trkpt lat="18.637508125975728" lon="-69.94450570084155">
        <ele>68.06</ele>
      </trkpt>
      <trkpt lat="18.637529918923974" lon="-69.94451995007694">
        <ele>68.09</ele>
      </trkpt>
      <trkpt lat="18.637719936668873" lon="-69.94467996060848">
        <ele>68.27</ele>
      </trkpt>
      <trkpt lat="18.637759918347" lon="-69.94469999335706">
        <ele>68.29</ele>
      </trkpt>
      <trkpt lat="18.637901404872537" lon="-69.94475020095706">
        <ele>68.33</ele>
      </trkpt>
      <trkpt lat="18.637972567230463" lon="-69.9448655359447">
        <ele>68.13</ele>
      </trkpt>
      <trkpt lat="18.63810977898538" lon="-69.94505060836673">
        <ele>67.71</ele>
      </trkpt>
      <trkpt lat="18.6382953543216" lon="-69.94528387673199">
        <ele>66.98</ele>
      </trkpt>
      <trkpt lat="18.638490987941623" lon="-69.94544212706387">
        <ele>66.16</ele>
      </trkpt>
      <trkpt lat="18.638618141412735" lon="-69.94548772461712">
        <ele>65.43</ele>
      </trkpt>
      <trkpt lat="18.63874009810388" lon="-69.94546090252697">
        <ele>64.92</ele>
      </trkpt>
      <trkpt lat="18.638849398121238" lon="-69.94540725834668">
        <ele>64.61</ele>
      </trkpt>
      <trkpt lat="18.63896632567048" lon="-69.94538311846554">
        <ele>64.41</ele>
      </trkpt>
      <trkpt lat="18.6391035374254" lon="-69.94541530497372">
        <ele>64.38</ele>
      </trkpt>
      <trkpt lat="18.639159444719553" lon="-69.94550918228924">
        <ele>64.37</ele>
      </trkpt>
      <trkpt lat="18.63917981274426" lon="-69.94564329273999">
        <ele>64.44</ele>
      </trkpt>
      <trkpt lat="18.639149302616715" lon="-69.94575594551861">
        <ele>64.61</ele>
      </trkpt>
      <trkpt lat="18.63914167508483" lon="-69.94589533656836">
        <ele>64.95</ele>
      </trkpt>
      <trkpt lat="18.639164557680488" lon="-69.94598116725683">
        <ele>65.45</ele>
      </trkpt>
      <trkpt lat="18.639225577935576" lon="-69.94608845561743">
        <ele>66.13</ele>
      </trkpt>
      <trkpt lat="18.639464545994997" lon="-69.94630571454763">
        <ele>67.13</ele>
      </trkpt>
      <trkpt lat="18.63948223181069" lon="-69.94632180780172">
        <ele>67.91</ele>
      </trkpt>
      <trkpt lat="18.63970896229148" lon="-69.9465529806912">
        <ele>68.88</ele>
      </trkpt>
      <trkpt lat="18.63993569277227" lon="-69.9467842373997">
        <ele>69.73</ele>
      </trkpt>
      <trkpt lat="18.63993720151484" lon="-69.94678574614227">
        <ele>70.5</ele>
      </trkpt>
      <trkpt lat="18.64022109657526" lon="-69.94693175889552">
        <ele>71.39</ele>
      </trkpt>
      <trkpt lat="18.640234591439366" lon="-69.94693863205612">
        <ele>72.08</ele>
      </trkpt>
      <trkpt lat="18.64048110321164" lon="-69.94694936089218">
        <ele>72.82</ele>
      </trkpt>
      <trkpt lat="18.640651339665055" lon="-69.94694131426513">
        <ele>73.37</ele>
      </trkpt>
      <trkpt lat="18.64088519476354" lon="-69.94681793265045">
        <ele>73.87</ele>
      </trkpt>
      <trkpt lat="18.64117152057588" lon="-69.94667711667717">
        <ele>74.27</ele>
      </trkpt>
      <trkpt lat="18.641190128400922" lon="-69.94666798040271">
        <ele>74.57</ele>
      </trkpt>
      <trkpt lat="18.6414675693959" lon="-69.94650880806148">
        <ele>74.86</ele>
      </trkpt>
      <trkpt lat="18.641685750335455" lon="-69.94638366624713">
        <ele>74.98</ele>
      </trkpt>
      <trkpt lat="18.641699999570847" lon="-69.94637997820973">
        <ele>75.06</ele>
      </trkpt>
      <trkpt lat="18.641871493309736" lon="-69.94665867649019">
        <ele>74.95</ele>
      </trkpt>
      <trkpt lat="18.642042987048626" lon="-69.94693729095161">
        <ele>75.01</ele>
      </trkpt>
      <trkpt lat="18.642214480787516" lon="-69.94721598923206">
        <ele>75.01</ele>
      </trkpt>
      <trkpt lat="18.642339957877994" lon="-69.94741992093623">
        <ele>74.88</ele>
      </trkpt>
      <trkpt lat="18.642399972304702" lon="-69.94745998643339">
        <ele>74.67</ele>
      </trkpt>
      <trkpt lat="18.64256995730102" lon="-69.94740994647145">
        <ele>74.42</ele>
      </trkpt>
      <trkpt lat="18.64271999336779" lon="-69.94741992093623">
        <ele>74.19</ele>
      </trkpt>
      <trkpt lat="18.64275997504592" lon="-69.94744992814958">
        <ele>73.99</ele>
      </trkpt>
      <trkpt lat="18.642839938402176" lon="-69.9473799392581">
        <ele>73.76</ele>
      </trkpt>
      <trkpt lat="18.642839938402176" lon="-69.9473899975419">
        <ele>73.57</ele>
      </trkpt>
      <trkpt lat="18.643093993887305" lon="-69.94719243608415">
        <ele>73.32</ele>
      </trkpt>
      <trkpt lat="18.643289962783456" lon="-69.94703996926546">
        <ele>73.23</ele>
      </trkpt>
      <trkpt lat="18.643551729619503" lon="-69.94685389101505">
        <ele>73.21</ele>
      </trkpt>
      <trkpt lat="18.64381349645555" lon="-69.94666781276464">
        <ele>73.11</ele>
      </trkpt>
      <trkpt lat="18.644075263291597" lon="-69.9464816506952">
        <ele>72.91</ele>
      </trkpt>
      <trkpt lat="18.644336946308613" lon="-69.9462955724448">
        <ele>72.65</ele>
      </trkpt>
      <trkpt lat="18.64456996321678" lon="-69.94612994603813">
        <ele>72.4</ele>
      </trkpt>
      <trkpt lat="18.64475998096168" lon="-69.94600991718471">
        <ele>72.13</ele>
      </trkpt>
      <trkpt lat="18.64488998427987" lon="-69.94597999379039">
        <ele>71.84</ele>
      </trkpt>
      <trkpt lat="18.645205982029438" lon="-69.94598996825516">
        <ele>71.51</ele>
      </trkpt>
      <trkpt lat="18.645519968122244" lon="-69.94599994271994">
        <ele>71.29</ele>
      </trkpt>
      <trkpt lat="18.645836133509874" lon="-69.94599994271994">
        <ele>71.13</ele>
      </trkpt>
      <trkpt lat="18.646152382716537" lon="-69.94599994271994">
        <ele>71.06</ele>
      </trkpt>
      <trkpt lat="18.646468548104167" lon="-69.94599994271994">
        <ele>71.02</ele>
      </trkpt>
      <trkpt lat="18.64655999466777" lon="-69.94599994271994">
        <ele>70.93</ele>
      </trkpt>
      <trkpt lat="18.646876076236367" lon="-69.94599072262645">
        <ele>70.87</ele>
      </trkpt>
      <trkpt lat="18.647192157804966" lon="-69.94598158635199">
        <ele>70.86</ele>
      </trkpt>
      <trkpt lat="18.647508239373565" lon="-69.9459723662585">
        <ele>70.96</ele>
      </trkpt>
      <trkpt lat="18.647589962929487" lon="-69.94596993550658">
        <ele>71.03</ele>
      </trkpt>
      <trkpt lat="18.647899003699422" lon="-69.945899695158">
        <ele>71.07</ele>
      </trkpt>
      <trkpt lat="18.648208044469357" lon="-69.94582945480943">
        <ele>71.13</ele>
      </trkpt>
      <trkpt lat="18.648249953985214" lon="-69.94581998325884">
        <ele>71.28</ele>
      </trkpt>
      <trkpt lat="18.648566035553813" lon="-69.94581093080342">
        <ele>71.48</ele>
      </trkpt>
      <trkpt lat="18.648599982261658" lon="-69.94580992497504">
        <ele>71.67</ele>
      </trkpt>
      <trkpt lat="18.648629989475012" lon="-69.94595996104181">
        <ele>71.92</ele>
      </trkpt>
      <trkpt lat="18.64847157150507" lon="-69.94624704122543">
        <ele>72.12</ele>
      </trkpt>
      <trkpt lat="18.648469978943467" lon="-69.94624997489154">
        <ele>72.36</ele>
      </trkpt>
      <trkpt lat="18.64831030368805" lon="-69.94653630070388">
        <ele>72.6</ele>
      </trkpt>
      <trkpt lat="18.648156244307756" lon="-69.94681265205145">
        <ele>72.95</ele>
      </trkpt>
      <trkpt lat="18.648159932345152" lon="-69.94681994430721">
        <ele>73.2</ele>
      </trkpt>
      <trkpt lat="18.648023894056678" lon="-69.9471193458885">
        <ele>73.57</ele>
      </trkpt>
      <trkpt lat="18.64795994013548" lon="-69.94725999422371">
        <ele>73.8</ele>
      </trkpt>
      <trkpt lat="18.647859944030643" lon="-69.94735999032855">
        <ele>74.02</ele>
      </trkpt>
      <trkpt lat="18.647596668452024" lon="-69.94754363782704">
        <ele>74.22</ele>
      </trkpt>
      <trkpt lat="18.647333392873406" lon="-69.94772736914456">
        <ele>74.32</ele>
      </trkpt>
      <trkpt lat="18.647070033475757" lon="-69.94791101664305">
        <ele>74.44</ele>
      </trkpt>
      <trkpt lat="18.646999960765243" lon="-69.94795996695757">
        <ele>74.49</ele>
      </trkpt>
      <trkpt lat="18.64677993580699" lon="-69.94812995195389">
        <ele>74.51</ele>
      </trkpt>
      <trkpt lat="18.646849924698472" lon="-69.94825995527208">
        <ele>74.51</ele>
      </trkpt>
      <trkpt lat="18.647016305476427" lon="-69.94854209013283">
        <ele>74.43</ele>
      </trkpt>
      <trkpt lat="18.6470799241215" lon="-69.94864996522665">
        <ele>74.34</ele>
      </trkpt>
      <trkpt lat="18.647219985723495" lon="-69.94875993579626">
        <ele>74.18</ele>
      </trkpt>
      <trkpt lat="18.647349989041686" lon="-69.94877996854484">
        <ele>74.03</ele>
      </trkpt>
      <trkpt lat="18.647589962929487" lon="-69.94867997244">
        <ele>73.91</ele>
      </trkpt>
      <trkpt lat="18.647869918495417" lon="-69.94864996522665">
        <ele>73.68</ele>
      </trkpt>
      <trkpt lat="18.648039987310767" lon="-69.94873998686671">
        <ele>73.39</ele>
      </trkpt>
      <trkpt lat="18.64812657237053" lon="-69.94905900210142">
        <ele>73.27</ele>
      </trkpt>
      <trkpt lat="18.64821315743029" lon="-69.94937801733613">
        <ele>73.38</ele>
      </trkpt>
      <trkpt lat="18.648229921236634" lon="-69.94943995960057">
        <ele>73.36</ele>
      </trkpt>
      <trkpt lat="18.64816864952445" lon="-69.94976534508169">
        <ele>73.46</ele>
      </trkpt>
      <trkpt lat="18.648107293993235" lon="-69.95009081438184">
        <ele>73.53</ele>
      </trkpt>
      <trkpt lat="18.648099917918444" lon="-69.95012995786965">
        <ele>73.54</ele>
      </trkpt>
      <trkpt lat="18.648059936240315" lon="-69.95044997893274">
        <ele>73.61</ele>
      </trkpt>
      <trkpt lat="18.64808994345367" lon="-69.95075994171202">
        <ele>73.51</ele>
      </trkpt>
      <trkpt lat="18.648162111639977" lon="-69.95108289644122">
        <ele>73.46</ele>
      </trkpt>
      <trkpt lat="18.64823419600725" lon="-69.95140593498945">
        <ele>73.57</ele>
      </trkpt>
      <trkpt lat="18.64830636419356" lon="-69.95172888971865">
        <ele>73.56</ele>
      </trkpt>
      <trkpt lat="18.648378532379866" lon="-69.95205184444785">
        <ele>73.53</ele>
      </trkpt>
      <trkpt lat="18.64845061674714" lon="-69.95237479917705">
        <ele>73.72</ele>
      </trkpt>
      <trkpt lat="18.648522784933448" lon="-69.95269775390625">
        <ele>74.08</ele>
      </trkpt>
      <trkpt lat="18.648529993370175" lon="-69.95272994041443">
        <ele>74.43</ele>
      </trkpt>
      <trkpt lat="18.64851993508637" lon="-69.95272994041443">
        <ele>74.79</ele>
      </trkpt>
      <trkpt lat="18.648549942299724" lon="-69.95294996537268">
        <ele>75.34</ele>
      </trkpt>
      <trkpt lat="18.64849998615682" lon="-69.95310997590423">
        <ele>75.87</ele>
      </trkpt>
      <trkpt lat="18.648809110745788" lon="-69.95317954570055">
        <ele>76.42</ele>
      </trkpt>
      <trkpt lat="18.648899970576167" lon="-69.95319999754429">
        <ele>76.91</ele>
      </trkpt>
      <trkpt lat="18.64915997721255" lon="-69.95333997532725">
        <ele>77.49</ele>
      </trkpt>
      <trkpt lat="18.649259973317385" lon="-69.95344994589686">
        <ele>77.95</ele>
      </trkpt>
      <trkpt lat="18.64928998053074" lon="-69.95353996753693">
        <ele>78.38</ele>
      </trkpt>
      <trkpt lat="18.649376817047596" lon="-69.9538588989526">
        <ele>78.74</ele>
      </trkpt>
      <trkpt lat="18.64938628859818" lon="-69.95389368385077">
        <ele>79.05</ele>
      </trkpt>
      <trkpt lat="18.6494370829314" lon="-69.95403315871954">
        <ele>79.32</ele>
      </trkpt>
      <trkpt lat="18.64975324831903" lon="-69.95402687229216">
        <ele>79.43</ele>
      </trkpt>
      <trkpt lat="18.6499809846282" lon="-69.95402242988348">
        <ele>79.55</ele>
      </trkpt>
      <trkpt lat="18.650194387882948" lon="-69.95402779430151">
        <ele>79.61</ele>
      </trkpt>
      <trkpt lat="18.650443498045206" lon="-69.95418327860534">
        <ele>79.61</ele>
      </trkpt>
      <trkpt lat="18.65075061097741" lon="-69.95426223613322">
        <ele>79.55</ele>
      </trkpt>
      <trkpt lat="18.65083996206522" lon="-69.95428520254791">
        <ele>79.44</ele>
      </trkpt>
      <trkpt lat="18.65114246495068" lon="-69.95438159443438">
        <ele>79.25</ele>
      </trkpt>
      <trkpt lat="18.651378750801086" lon="-69.95445686392486">
        <ele>79.05</ele>
      </trkpt>
      <trkpt lat="18.65141998976469" lon="-69.95449994690716">
        <ele>78.79</ele>
      </trkpt>
      <trkpt lat="18.651624843478203" lon="-69.95424731634557">
        <ele>78.43</ele>
      </trkpt>
      <trkpt lat="18.6517199780792" lon="-69.95412996970117">
        <ele>78.1</ele>
      </trkpt>
      <trkpt lat="18.65179818123579" lon="-69.95380852371454">
        <ele>77.72</ele>
      </trkpt>
      <trkpt lat="18.651809999719262" lon="-69.95375999249518">
        <ele>77.35</ele>
      </trkpt>
      <trkpt lat="18.651932291686535" lon="-69.95345405302942">
        <ele>76.86</ele>
      </trkpt>
      <trkpt lat="18.651949977502227" lon="-69.95340996421874">
        <ele>76.46</ele>
      </trkpt>
      <trkpt lat="18.651989959180355" lon="-69.95329999364913">
        <ele>76.04</ele>
      </trkpt>
      <trkpt lat="18.652058439329267" lon="-69.95297611691058">
        <ele>75.67</ele>
      </trkpt>
      <trkpt lat="18.65212700329721" lon="-69.95265224017203">
        <ele>75.35</ele>
      </trkpt>
      <trkpt lat="18.65219548344612" lon="-69.95232844725251">
        <ele>74.97</ele>
      </trkpt>
      <trkpt lat="18.652263963595033" lon="-69.95200457051396">
        <ele>74.71</ele>
      </trkpt>
      <trkpt lat="18.65231995470822" lon="-69.95173995383084">
        <ele>74.47</ele>
      </trkpt>
      <trkpt lat="18.652349961921573" lon="-69.95169997215271">
        <ele>74.27</ele>
      </trkpt>
      <trkpt lat="18.65254333242774" lon="-69.95143753476441">
        <ele>74.12</ele>
      </trkpt>
      <trkpt lat="18.652629917487502" lon="-69.95131993666291">
        <ele>73.87</ele>
      </trkpt>
      <trkpt lat="18.652664283290505" lon="-69.95099019259214">
        <ele>73.66</ele>
      </trkpt>
      <trkpt lat="18.652679957449436" lon="-69.95083998888731">
        <ele>73.63</ele>
      </trkpt>
      <trkpt lat="18.652719939127564" lon="-69.95060998946428">
        <ele>73.61</ele>
      </trkpt>
      <trkpt lat="18.65283996798098" lon="-69.95038996450603">
        <ele>73.55</ele>
      </trkpt>
      <trkpt lat="18.653016574680805" lon="-69.95011478662491">
        <ele>73.66</ele>
      </trkpt>
      <trkpt lat="18.65319318138063" lon="-69.94983960874379">
        <ele>74.15</ele>
      </trkpt>
      <trkpt lat="18.65326995961368" lon="-69.94971999898553">
        <ele>74.44</ele>
      </trkpt>
      <trkpt lat="18.65332997404039" lon="-69.94958999566734">
        <ele>74.72</ele>
      </trkpt>
      <trkpt lat="18.653419325128198" lon="-69.94927173480392">
        <ele>74.82</ele>
      </trkpt>
      <trkpt lat="18.653508760035038" lon="-69.94895355775952">
        <ele>74.91</ele>
      </trkpt>
      <trkpt lat="18.653579922392964" lon="-69.94869992136955">
        <ele>75.14</ele>
      </trkpt>
      <trkpt lat="18.653673380613327" lon="-69.94838308542967">
        <ele>75.47</ele>
      </trkpt>
      <trkpt lat="18.65376683883369" lon="-69.94806616567075">
        <ele>75.69</ele>
      </trkpt>
      <trkpt lat="18.653860297054052" lon="-69.94774924591184">
        <ele>75.72</ele>
      </trkpt>
      <trkpt lat="18.653953755274415" lon="-69.94743232615292">
        <ele>75.8</ele>
      </trkpt>
      <trkpt lat="18.654047213494778" lon="-69.947115406394">
        <ele>76.0</ele>
      </trkpt>
      <trkpt lat="18.65414067171514" lon="-69.94679848663509">
        <ele>76.13</ele>
      </trkpt>
      <trkpt lat="18.654234129935503" lon="-69.94648156687617">
        <ele>76.15</ele>
      </trkpt>
      <trkpt lat="18.654269920662045" lon="-69.94635994546115">
        <ele>76.1</ele>
      </trkpt>
      <trkpt lat="18.654239997267723" lon="-69.94628995656967">
        <ele>76.04</ele>
      </trkpt>
      <trkpt lat="18.654106641188264" lon="-69.94598913006485">
        <ele>76.14</ele>
      </trkpt>
      <trkpt lat="18.653973368927836" lon="-69.94568830356002">
        <ele>76.13</ele>
      </trkpt>
      <trkpt lat="18.65388996899128" lon="-69.94549996219575">
        <ele>76.0</ele>
      </trkpt>
      <trkpt lat="18.65373993292451" lon="-69.94520994834602">
        <ele>75.81</ele>
      </trkpt>
      <trkpt lat="18.653644546866417" lon="-69.94489369913936">
        <ele>75.61</ele>
      </trkpt>
      <trkpt lat="18.653549998998642" lon="-69.94457996450365">
        <ele>75.4</ele>
      </trkpt>
      <trkpt lat="18.65337498486042" lon="-69.94430369697511">
        <ele>75.3</ele>
      </trkpt>
      <trkpt lat="18.6531999707222" lon="-69.94402734562755">
        <ele>75.14</ele>
      </trkpt>
      <trkpt lat="18.653169963508844" lon="-69.94397998787463">
        <ele>75.08</ele>
      </trkpt>
      <trkpt lat="18.653013557195663" lon="-69.94369165040553">
        <ele>75.05</ele>
      </trkpt>
      <trkpt lat="18.652857150882483" lon="-69.94340339675546">
        <ele>75.13</ele>
      </trkpt>
      <trkpt lat="18.6527007445693" lon="-69.94311505928636">
        <ele>75.25</ele>
      </trkpt>
      <trkpt lat="18.652659924700856" lon="-69.94303995743394">
        <ele>75.32</ele>
      </trkpt>
      <trkpt lat="18.652502931654453" lon="-69.94275203906">
        <ele>75.34</ele>
      </trkpt>
      <trkpt lat="18.652479965239763" lon="-69.94270996190608">
        <ele>75.37</ele>
      </trkpt>
      <trkpt lat="18.6523399874568" lon="-69.94241248816252">
        <ele>75.31</ele>
      </trkpt>
      <trkpt lat="18.652200009673834" lon="-69.94211501441896">
        <ele>75.37</ele>
      </trkpt>
      <trkpt lat="18.652079980820417" lon="-69.94185995310545">
        <ele>75.41</ele>
      </trkpt>
      <trkpt lat="18.65191737189889" lon="-69.94157547131181">
        <ele>75.32</ele>
      </trkpt>
      <trkpt lat="18.651799941435456" lon="-69.94136994704604">
        <ele>75.29</ele>
      </trkpt>
      <trkpt lat="18.65163741633296" lon="-69.9410854652524">
        <ele>75.24</ele>
      </trkpt>
      <trkpt lat="18.651519985869527" lon="-69.94087994098663">
        <ele>75.31</ele>
      </trkpt>
      <trkpt lat="18.651370787993073" lon="-69.94058749638498">
        <ele>75.39</ele>
      </trkpt>
      <trkpt lat="18.65122159011662" lon="-69.94029496796429">
        <ele>75.46</ele>
      </trkpt>
      <trkpt lat="18.6510724760592" lon="-69.94000252336264">
        <ele>75.47</ele>
      </trkpt>
      <trkpt lat="18.65100994706154" lon="-69.93987997993827">
        <ele>75.42</ele>
      </trkpt>
      <trkpt lat="18.650884553790092" lon="-69.93957546539605">
        <ele>75.19</ele>
      </trkpt>
      <trkpt lat="18.650869969278574" lon="-69.9395399261266">
        <ele>75.0</ele>
      </trkpt>
      <trkpt lat="18.650889918208122" lon="-69.93959994055331">
        <ele>74.79</ele>
      </trkpt>
      <trkpt lat="18.650590516626835" lon="-69.93970647454262">
        <ele>74.5</ele>
      </trkpt>
      <trkpt lat="18.650291031226516" lon="-69.9398129247129">
        <ele>74.06</ele>
      </trkpt>
      <trkpt lat="18.649991545826197" lon="-69.93991937488317">
        <ele>73.54</ele>
      </trkpt>
      <trkpt lat="18.649989953264594" lon="-69.9399199616164">
        <ele>73.0</ele>
      </trkpt>
      <trkpt lat="18.649694323539734" lon="-69.94003764353693">
        <ele>72.3</ele>
      </trkpt>
      <trkpt lat="18.649398693814874" lon="-69.94015532545745">
        <ele>71.56</ele>
      </trkpt>
      <trkpt lat="18.649103064090014" lon="-69.94027309119701">
        <ele>70.76</ele>
      </trkpt>
      <trkpt lat="18.64890994504094" lon="-69.9403499532491">
        <ele>69.84</ele>
      </trkpt>
      <trkpt lat="18.648616997525096" lon="-69.94047492742538">
        <ele>68.86</ele>
      </trkpt>
      <trkpt lat="18.648324133828282" lon="-69.94059981778264">
        <ele>67.84</ele>
      </trkpt>
      <trkpt lat="18.648031186312437" lon="-69.94072479195893">
        <ele>66.77</ele>
      </trkpt>
      <trkpt lat="18.64773823879659" lon="-69.94084968231618">
        <ele>65.65</ele>
      </trkpt>
      <trkpt lat="18.647445375099778" lon="-69.94097465649247">
        <ele>64.55</ele>
      </trkpt>
      <trkpt lat="18.647152427583933" lon="-69.94109954684973">
        <ele>63.39</ele>
      </trkpt>
      <trkpt lat="18.646859480068088" lon="-69.94122452102602">
        <ele>62.24</ele>
      </trkpt>
      <trkpt lat="18.646566616371274" lon="-69.94134941138327">
        <ele>60.96</ele>
      </trkpt>
      <trkpt lat="18.64627366885543" lon="-69.94147438555956">
        <ele>59.61</ele>
      </trkpt>
      <trkpt lat="18.646119944751263" lon="-69.94153993204236">
        <ele>58.5</ele>
      </trkpt>
      <trkpt lat="18.645959934219718" lon="-69.94156993925571">
        <ele>57.56</ele>
      </trkpt>
      <trkpt lat="18.645799923688173" lon="-69.94156993925571">
        <ele>56.78</ele>
      </trkpt>
      <trkpt lat="18.6455032043159" lon="-69.94145527482033">
        <ele>56.17</ele>
      </trkpt>
      <trkpt lat="18.6453599575907" lon="-69.9413999542594">
        <ele>55.73</ele>
      </trkpt>
      <trkpt lat="18.645139932632446" lon="-69.94136994704604">
        <ele>55.45</ele>
      </trkpt>
      <trkpt lat="18.64494999870658" lon="-69.94129995815456">
        <ele>55.34</ele>
      </trkpt>
      <trkpt lat="18.644725028425455" lon="-69.94106685742736">
        <ele>55.43</ele>
      </trkpt>
      <trkpt lat="18.64450005814433" lon="-69.94083367288113">
        <ele>55.8</ele>
      </trkpt>
      <trkpt lat="18.644399978220463" lon="-69.9407299887389">
        <ele>56.24</ele>
      </trkpt>
      <trkpt lat="18.64413309842348" lon="-69.94055204093456">
        <ele>56.9</ele>
      </trkpt>
      <trkpt lat="18.644129997119308" lon="-69.94054994545877">
        <ele>57.51</ele>
      </trkpt>
      <trkpt lat="18.64389999769628" lon="-69.94046998210251">
        <ele>58.36</ele>
      </trkpt>
      <trkpt lat="18.643739987164736" lon="-69.94045992381871">
        <ele>59.17</ele>
      </trkpt>
      <trkpt lat="18.643569918349385" lon="-69.94046998210251">
        <ele>59.94</ele>
      </trkpt>
      <trkpt lat="18.64326087757945" lon="-69.94054013863206">
        <ele>60.74</ele>
      </trkpt>
      <trkpt lat="18.642951836809516" lon="-69.94061021134257">
        <ele>61.49</ele>
      </trkpt>
      <trkpt lat="18.64264279603958" lon="-69.94068036787212">
        <ele>62.15</ele>
      </trkpt>
      <trkpt lat="18.642333755269647" lon="-69.94075052440166">
        <ele>62.7</ele>
      </trkpt>
      <trkpt lat="18.6421599984169" lon="-69.94078991934657">
        <ele>63.09</ele>
      </trkpt>
      <trkpt lat="18.64185992628336" lon="-69.9408399593085">
        <ele>63.34</ele>
      </trkpt>
      <trkpt lat="18.64155314862728" lon="-69.94092009030282">
        <ele>63.39</ele>
      </trkpt>
      <trkpt lat="18.64124628715217" lon="-69.94100022129714">
        <ele>63.39</ele>
      </trkpt>
      <trkpt lat="18.64093942567706" lon="-69.94108035229146">
        <ele>63.28</ele>
      </trkpt>
      <trkpt lat="18.64063256420195" lon="-69.94116039946675">
        <ele>63.06</ele>
      </trkpt>
      <trkpt lat="18.640325786545873" lon="-69.94124053046107">
        <ele>62.84</ele>
      </trkpt>
      <trkpt lat="18.640059996396303" lon="-69.94130993261933">
        <ele>62.76</ele>
      </trkpt>
      <trkpt lat="18.63975489512086" lon="-69.94139710441232">
        <ele>62.96</ele>
      </trkpt>
      <trkpt lat="18.63970996811986" lon="-69.94140992872417">
        <ele>63.16</ele>
      </trkpt>
      <trkpt lat="18.639400089159608" lon="-69.9414758104831">
        <ele>63.57</ele>
      </trkpt>
      <trkpt lat="18.639090126380324" lon="-69.94154169224203">
        <ele>63.98</ele>
      </trkpt>
      <trkpt lat="18.638909999281168" lon="-69.94157999753952">
        <ele>64.29</ele>
      </trkpt>
      <trkpt lat="18.63884998485446" lon="-69.9416399281472">
        <ele>64.66</ele>
      </trkpt>
      <trkpt lat="18.638839926570654" lon="-69.94167999364436">
        <ele>65.12</ele>
      </trkpt>
      <trkpt lat="18.63901904784143" lon="-69.94195332750678">
        <ele>65.74</ele>
      </trkpt>
      <trkpt lat="18.639198169112206" lon="-69.9422266613692">
        <ele>66.29</ele>
      </trkpt>
      <trkpt lat="18.63921996206045" lon="-69.9422599375248">
        <ele>66.91</ele>
      </trkpt>
      <trkpt lat="18.639389192685485" lon="-69.94254014454782">
        <ele>67.7</ele>
      </trkpt>
      <trkpt lat="18.639509975910187" lon="-69.94273996911943">
        <ele>68.48</ele>
      </trkpt>
      <trkpt lat="18.63940997980535" lon="-69.94277995079756">
        <ele>69.08</ele>
      </trkpt>
      <trkpt lat="18.639329932630062" lon="-69.94283996522427">
        <ele>69.67</ele>
      </trkpt>
      <trkpt lat="18.63913488574326" lon="-69.94310097768903">
        <ele>70.22</ele>
      </trkpt>
      <trkpt lat="18.638939755037427" lon="-69.94336207397282">
        <ele>70.54</ele>
      </trkpt>
      <trkpt lat="18.638744708150625" lon="-69.94362308643758">
        <ele>70.83</ele>
      </trkpt>
      <trkpt lat="18.638549577444792" lon="-69.94388409890234">
        <ele>71.01</ele>
      </trkpt>
      <trkpt lat="18.63835453055799" lon="-69.94414519518614">
        <ele>71.13</ele>
      </trkpt>
      <trkpt lat="18.638159399852157" lon="-69.9444062076509">
        <ele>71.12</ele>
      </trkpt>
      <trkpt lat="18.637964269146323" lon="-69.94466722011566">
        <ele>70.89</ele>
      </trkpt>
      <trkpt lat="18.63790995441377" lon="-69.94473997503519">
        <ele>70.58</ele>
      </trkpt>
      <trkpt lat="18.637719936668873" lon="-69.94467996060848">
        <ele>68.27</ele>
      </trkpt>
      <trkpt lat="18.637529918923974" lon="-69.94451995007694">
        <ele>68.09</ele>
      </trkpt>
      <trkpt lat="18.63736362196505" lon="-69.94441031478345">
        <ele>68.86</ele>
      </trkpt>
      <trkpt lat="18.637262200936675" lon="-69.94434351101518">
        <ele>68.25</ele>
      </trkpt>
      <trkpt lat="18.6370899528265" lon="-69.9442299362272">
        <ele>67.67</ele>
      </trkpt>
      <trkpt lat="18.6368291079998" lon="-69.94404243305326">
        <ele>67.02</ele>
      </trkpt>
      <trkpt lat="18.63676993176341" lon="-69.94399993680418">
        <ele>66.82</ele>
      </trkpt>
      <trkpt lat="18.637031698599458" lon="-69.94418609887362">
        <ele>67.08</ele>
      </trkpt>
      <trkpt lat="18.63721995614469" lon="-69.94431995786726">
        <ele>67.09</ele>
      </trkpt>
    </trkseg>
  </trk>
</gpx>
